0 ARABSAT 2B
1 24652U 96063A   13282.89775080 -.00000036  00000-0  10000-3 0  8985
2 24652 000.9872 078.3332 0004063 098.7199 182.9783 00.99413828 62391
0 ARABSAT 2B
1 24652U 96063A   13284.90948902 -.00000084  00000-0  10000-3 0  8998
2 24652 000.9916 078.3117 0004066 099.9646 181.7488 00.99414541 62419
0 ARABSAT 2B
1 24652U 96063A   13286.92122283 -.00000128  00000-0  10000-3 0  9000
2 24652 000.9959 078.2902 0004124 099.8312 181.9010 00.99415106 62434
0 ARABSAT 2B
1 24652U 96063A   13288.93295182 -.00000166  00000-0  10000-3 0  9015
2 24652 001.0002 078.2698 0004136 101.0901 180.6613 00.99415504 62459
0 ARABSAT 2B
1 24652U 96063A   13290.16022468  .00000000  00000-0  10000-3 0  9025
2 24652 001.0029 078.2952 0004178 105.0225 255.9487 00.99411965 62474
0 ARABSAT 2B
1 24652U 96063A   13291.16571651 -.00000201  00000-0  10000-3 0  9023
2 24652 001.0051 078.2537 0004139 102.6602 258.2183 00.99415746 62477
0 ARABSAT 2B
1 24652U 96063A   13293.17667911 -.00000226  00000-0  10000-3 0  9039
2 24652 001.0097 078.2376 0004189 107.6851 252.9354 00.99415756 62498
0 ARABSAT 2B
1 24652U 96063A   13295.18778935 -.00000246  00000-0  10000-3 0  9044
2 24652 001.0142 078.2224 0004283 111.7391 248.6761 00.99415598 62512
